{
  "norad_id": 68272,
  "name": "STARLINK-36974",
  "history": [
    {
      "epoch": "2026-03-28T20:00:01.999872Z",
      "apogee_km": 285.40163071889856,
      "perigee_km": 284.27585433744116,
      "latitude_deg": 51.86238938136842,
      "longitude_deg": -173.0502312352508,
      "height_km": 290.5160317481149,
      "semi_major_axis_km": 6662.97574252817,
      "eccentricity": 8.448e-05,
      "inclination_deg": 53.1578,
      "raan_deg": 241.6106,
      "arg_perigee_deg": 61.2341,
      "mean_anomaly_deg": 17.4929,
      "mean_motion_rev_day": 15.96248175
    },
    {
      "epoch": "2026-03-29T04:00:01.999584Z",
      "apogee_km": 287.426623298049,
      "perigee_km": 286.34289076035657,
      "latitude_deg": -12.043577612839634,
      "longitude_deg": -177.53817867191648,
      "height_km": 290.4539649349183,
      "semi_major_axis_km": 6665.0217570292025,
      "eccentricity": 8.13e-05,
      "inclination_deg": 53.1574,
      "raan_deg": 239.9009,
      "arg_perigee_deg": 69.8372,
      "mean_anomaly_deg": 125.076,
      "mean_motion_rev_day": 15.95513212
    },
    {
      "epoch": "2026-03-30T04:00:01.999584Z",
      "apogee_km": 294.03337274710884,
      "perigee_km": 292.8631766899234,
      "latitude_deg": 1.6624630093584776,
      "longitude_deg": 165.97946174446346,
      "height_km": 294.3708626870039,
      "semi_major_axis_km": 6671.585274718516,
      "eccentricity": 8.77e-05,
      "inclination_deg": 53.1578,
      "raan_deg": 234.7891,
      "arg_perigee_deg": 67.9237,
      "mean_anomaly_deg": 109.8997,
      "mean_motion_rev_day": 15.93159288
    },
    {
      "epoch": "2026-03-30T06:00:02.000160Z",
      "apogee_km": 294.45631264963777,
      "perigee_km": 293.5443649181734,
      "latitude_deg": -46.18055856245748,
      "longitude_deg": -94.21871945233826,
      "height_km": 309.9966387132364,
      "semi_major_axis_km": 6672.137338783906,
      "eccentricity": 6.834e-05,
      "inclination_deg": 53.1576,
      "raan_deg": 234.3636,
      "arg_perigee_deg": 68.261,
      "mean_anomaly_deg": 227.7601,
      "mean_motion_rev_day": 15.92961561
    },
    {
      "epoch": "2026-03-30T14:00:03.000384Z",
      "apogee_km": 296.8448365775457,
      "perigee_km": 295.6933680367765,
      "latitude_deg": 36.79563468649279,
      "longitude_deg": -131.4541580747495,
      "height_km": 298.6551669846371,
      "semi_major_axis_km": 6674.406102307161,
      "eccentricity": 8.626e-05,
      "inclination_deg": 53.1574,
      "raan_deg": 232.6652,
      "arg_perigee_deg": 69.5291,
      "mean_anomaly_deg": 338.7452,
      "mean_motion_rev_day": 15.92149411
    },
    {
      "epoch": "2026-03-30T22:00:00.999936Z",
      "apogee_km": 299.6694788052455,
      "perigee_km": 298.21147216769896,
      "latitude_deg": 16.4723093789327,
      "longitude_deg": -120.06345104893788,
      "height_km": 299.354334164512,
      "semi_major_axis_km": 6677.077475486472,
      "eccentricity": 0.00010918,
      "inclination_deg": 53.1569,
      "raan_deg": 230.9687,
      "arg_perigee_deg": 57.0825,
      "mean_anomaly_deg": 102.1826,
      "mean_motion_rev_day": 15.91194023
    },
    {
      "epoch": "2026-03-31T20:00:01.999008Z",
      "apogee_km": 306.6645392856335,
      "perigee_km": 305.4841075659151,
      "latitude_deg": 7.300446662229571,
      "longitude_deg": 102.57639299045356,
      "height_km": 305.936796761723,
      "semi_major_axis_km": 6684.211323425774,
      "eccentricity": 8.83e-05,
      "inclination_deg": 53.1572,
      "raan_deg": 226.3128,
      "arg_perigee_deg": 55.8071,
      "mean_anomaly_deg": 313.381,
      "mean_motion_rev_day": 15.88647356
    },
    {
      "epoch": "2026-04-01T20:00:01.999008Z",
      "apogee_km": 314.2457475509873,
      "perigee_km": 313.28479038516343,
      "latitude_deg": -26.251786045009958,
      "longitude_deg": 69.49713259764715,
      "height_km": 321.50341222327654,
      "semi_major_axis_km": 6691.902268968075,
      "eccentricity": 7.18e-05,
      "inclination_deg": 53.1574,
      "raan_deg": 221.2538,
      "arg_perigee_deg": 57.317,
      "mean_anomaly_deg": 269.4136,
      "mean_motion_rev_day": 15.85909415
    },
    {
      "epoch": "2026-04-02T20:00:01.999008Z",
      "apogee_km": 323.1604995128555,
      "perigee_km": 321.96509466905445,
      "latitude_deg": -53.14133959083324,
      "longitude_deg": 1.4319375942374202,
      "height_km": 341.4938665223217,
      "semi_major_axis_km": 6700.699797090955,
      "eccentricity": 8.92e-05,
      "inclination_deg": 53.1582,
      "raan_deg": 216.216,
      "arg_perigee_deg": 57.1823,
      "mean_anomaly_deg": 216.6812,
      "mean_motion_rev_day": 15.82787166
    },
    {
      "epoch": "2026-04-02T22:00:01.999584Z",
      "apogee_km": 323.7776970564919,
      "perigee_km": 322.6826936567704,
      "latitude_deg": 22.83575043057641,
      "longitude_deg": 72.81325357927184,
      "height_km": 323.48410366156133,
      "semi_major_axis_km": 6701.367195356631,
      "eccentricity": 8.17e-05,
      "inclination_deg": 53.1583,
      "raan_deg": 215.7966,
      "arg_perigee_deg": 55.5625,
      "mean_anomaly_deg": 333.372,
      "mean_motion_rev_day": 15.82550724
    },
    {
      "epoch": "2026-04-03T20:00:01.999008Z",
      "apogee_km": 328.72109218241167,
      "perigee_km": 327.2283117175584,
      "latitude_deg": -24.185234809043425,
      "longitude_deg": -81.42354776913453,
      "height_km": 335.44674255199936,
      "semi_major_axis_km": 6706.111701949985,
      "eccentricity": 0.0001113,
      "inclination_deg": 53.159,
      "raan_deg": 211.1996,
      "arg_perigee_deg": 80.1324,
      "mean_anomaly_deg": 130.3856,
      "mean_motion_rev_day": 15.80871563
    },
    {
      "epoch": "2026-04-04T20:00:01.999008Z",
      "apogee_km": 329.12315702994965,
      "perigee_km": 327.2467281504141,
      "latitude_deg": 27.491659224584676,
      "longitude_deg": -129.77834696478243,
      "height_km": 328.9609358539078,
      "semi_major_axis_km": 6706.321942590182,
      "eccentricity": 0.0001399,
      "inclination_deg": 53.1583,
      "raan_deg": 206.1884,
      "arg_perigee_deg": 90.3797,
      "mean_anomaly_deg": 54.4934,
      "mean_motion_rev_day": 15.80797224
    },
    {
      "epoch": "2026-04-05T14:00:03.000384Z",
      "apogee_km": 328.81451346165977,
      "perigee_km": 326.5421808731189,
      "latitude_deg": 52.910681995657775,
      "longitude_deg": -101.68744074454895,
      "height_km": 333.06363038140665,
      "semi_major_axis_km": 6705.8153471673895,
      "eccentricity": 0.00016943,
      "inclination_deg": 53.1584,
      "raan_deg": 202.4293,
      "arg_perigee_deg": 76.6934,
      "mean_anomaly_deg": 19.1958,
      "mean_motion_rev_day": 15.80976361
    },
    {
      "epoch": "2026-04-05T20:00:03.000384Z",
      "apogee_km": 329.64013276150126,
      "perigee_km": 327.152008992206,
      "latitude_deg": 52.06218934755284,
      "longitude_deg": 139.91446693059885,
      "height_km": 333.4562820903442,
      "semi_major_axis_km": 6706.533070876853,
      "eccentricity": 0.0001855,
      "inclination_deg": 53.1582,
      "raan_deg": 201.1763,
      "arg_perigee_deg": 65.4321,
      "mean_anomaly_deg": 14.1132,
      "mean_motion_rev_day": 15.80722577
    },
    {
      "epoch": "2026-04-06T06:00:02.000160Z",
      "apogee_km": 329.1325469138628,
      "perigee_km": 326.9704717384557,
      "latitude_deg": -48.0591470764556,
      "longitude_deg": -141.47713536922763,
      "height_km": 345.46637472952995,
      "semi_major_axis_km": 6706.188509326159,
      "eccentricity": 0.0001612,
      "inclination_deg": 53.1582,
      "raan_deg": 199.0868,
      "arg_perigee_deg": 84.813,
      "mean_anomaly_deg": 207.258,
      "mean_motion_rev_day": 15.80844404
    },
    {
      "epoch": "2026-04-07T14:08:59.690400Z",
      "apogee_km": 328.4352007599573,
      "perigee_km": 327.1307652048672,
      "latitude_deg": 7.267542270875567e-06,
      "longitude_deg": 144.26159133627388,
      "height_km": 328.40488363367547,
      "semi_major_axis_km": 6705.919982982412,
      "eccentricity": 9.726e-05,
      "inclination_deg": 53.158,
      "raan_deg": 192.3746,
      "arg_perigee_deg": 62.9909,
      "mean_anomaly_deg": 297.1213,
      "mean_motion_rev_day": 15.80939358
    }
  ]
}